GLOBALSTAR M084         
1 38040U 11080A   24157.14481604 -.00000102  00000+0  93533-5 0  9993
2 38040  51.9998 116.3257 0000460   3.6115   9.5723 12.62263181575330
GLOBALSTAR M080         
1 38041U 11080B   24156.67817326 -.00000107  00000+0 -20771-4 0  9994
2 38041  52.0048 119.2205 0000406 323.1038 208.5235 12.62273351575113
GLOBALSTAR M082         
1 38042U 11080C   24156.53303874 -.00000110  00000+0 -35264-4 0  9995
2 38042  52.0085  75.0698 0001179  68.9058 102.1336 12.62269820575807
GLOBALSTAR M092         
1 38043U 11080D   24156.74403834 -.00000110  00000+0 -35355-4 0  9997
2 38043  52.0065 164.7831 0000194  19.1955 152.4943 12.62262855574285
GLOBALSTAR M090         
1 38044U 11080E   24157.50955390 -.00000092  00000+0  64583-4 0  9995
2 38044  51.9898  66.3909 0000899  72.2639  98.7079 12.62263720576086
GLOBALSTAR M086         
1 38045U 11080F   24157.53579906 -.00000103  00000+0  36082-5 0  9991
2 38045  51.9909  66.8313 0000548 161.6544   9.5000 12.62271396576096
GLOBALSTAR M097         
1 39072U 13005A   24157.52514955 -.00000090  00000+0  74081-4 0  9998
2 39072  52.0065 341.0332 0001019 110.2723 249.8254 12.62263525523327
GLOBALSTAR M093         
1 39073U 13005B   24156.94422905 -.00000083  00000+0  11695-3 0  9990
2 39073  51.9827 336.7072 0001119 112.8562 247.2423 12.62259858523126
